[{"OBJECT_NAME":"STARLINK-33954","OBJECT_ID":"2025-093AD","EPOCH":"2026-03-09T01:33:58.947840","MEAN_MOTION":15.27604832,"ECCENTRICITY":0.0001545,"INCLINATION":42.9998,"RA_OF_ASC_NODE":81.666,"ARG_OF_PERICENTER":282.4069,"MEAN_ANOMALY":77.6609,"EPHEMERIS_TYPE":0,"CLASSIFICATION_TYPE":"U","NORAD_CAT_ID":63863,"ELEMENT_SET_NO":999,"REV_AT_EPOCH":4765,"BSTAR":0.0014369752,"MEAN_MOTION_DOT":0.00039523,"MEAN_MOTION_DDOT":0},{"OBJECT_NAME":"SIMSAT 1","OBJECT_ID":"2000-026A","EPOCH":"2026-03-09T17:22:54.646176","MEAN_MOTION":15.27666538,"ECCENTRICITY":0.00084816,"INCLINATION":86.3501,"RA_OF_ASC_NODE":180.5413,"ARG_OF_PERICENTER":14.8337,"MEAN_ANOMALY":345.3157,"EPHEMERIS_TYPE":0,"CLASSIFICATION_TYPE":"U","NORAD_CAT_ID":26365,"ELEMENT_SET_NO":999,"REV_AT_EPOCH":42720,"BSTAR":0.00013499313,"MEAN_MOTION_DOT":3.69e-5,"MEAN_MOTION_DDOT":0}]
